{
  "norad_id": 51108,
  "name": "STARLINK-3362",
  "history": [
    {
      "epoch": "2026-03-28T17:18:12.608928",
      "apogee_km": 540.6992473252367,
      "perigee_km": 538.7497939487203,
      "latitude_deg": -22.09656800494099,
      "longitude_deg": 80.01400991994888,
      "semi_major_axis_km": 6917.861520636978,
      "eccentricity": 0.0001409,
      "inclination_deg": 53.2154,
      "raan_deg": 203.682,
      "arg_perigee_deg": 90.0464,
      "mean_anomaly_deg": 270.069,
      "mean_motion_rev_day": 15.08846173
    }
  ]
}